ORBCOMM FM20 [+]        
1 25416U 98046D   24079.37942572  .00001310  00000+0  50491-3 0  9992
2 25416  44.9941 171.3588 0001655 224.8568 135.2145 14.34985491338885
ORBCOMM FM16 [-]        
1 25417U 98046E   24079.44173841  .00002077  00000+0  75825-3 0  9995
2 25417  44.9934 167.2092 0004876 193.2457 166.8263 14.35883131338820
ORBCOMM FM15 [-]        
1 25418U 98046F   24079.38857514  .00001741  00000+0  64678-3 0  9996
2 25418  44.9971 171.3995 0004487 195.5733 164.4977 14.35619531338827
ORBCOMM FM14 [-]        
1 25419U 98046G   24079.37023081  .00002041  00000+0  74769-3 0  9996
2 25419  44.9951 170.6675 0003198 194.7868 273.1301 14.35767840338771
ORBCOMM FM13 [+]        
1 25420U 98046H   24079.36986994  .00001576  00000+0  59624-3 0  9993
2 25420  44.9973 175.2580 0005066 173.2028 186.8888 14.35099024337848
ORBCOMM FM21 [-]        
1 25475U 98053A   24079.59716773  .00001547  00000+0  58685-3 0  9996
2 25475  45.0075 258.4380 0001123 140.4792 219.6138 14.35061467332229
ORBCOMM FM22 [-]        
1 25476U 98053B   24078.61874335  .00001237  00000+0  47440-3 0  9991
2 25476  45.0070 260.5470 0002571 111.0617 249.0506 14.35531801331743
ORBCOMM FM23 [-]        
1 25477U 98053C   24079.90521574  .00001678  00000+0  63170-3 0  9996
2 25477  45.0078 259.4258 0001938 118.1115 241.9928 14.35092747332392
